{
  "type": "FeatureCollection",
  "features": [
    {
      "type": "Feature",
      "properties": {
        "norad_id": 33924,
        "name": "COSMOS 2251 DEB",
        "group": "cosmos-2251-debris",
        "lat": -2.1070738529578996,
        "lon": -92.34212712981586,
        "alt_km": 891.170625975119,
        "timestamp": "2025-12-13T22:39:30.104254+00:00",
        "meta_object_name": "COSMOS 2251 DEB",
        "meta_object_id": "1993-036ED",
        "meta_epoch": "2025-12-13T04:53:15.591552",
        "meta_mean_motion": 13.50226863,
        "meta_eccentricity": 0.04040333,
        "meta_inclination": 73.9137,
        "meta_ra_of_asc_node": 269.4558,
        "meta_arg_of_pericenter": 304.8281,
        "meta_mean_anomaly": 51.5435,
        "meta_ephemeris_type": 0,
        "meta_classification_type": "U",
        "meta_norad_cat_id": 33924,
        "meta_element_set_no": 999,
        "meta_rev_at_epoch": 82745,
        "meta_bstar": 0.0012788251,
        "meta_mean_motion_dot": 1.332e-05,
        "meta_mean_motion_ddot": 0,
        "tle_line1": "1 33924U 93036ED  25347.20365268  .00001332  00000+0  12788-2 0  9991",
        "tle_line2": "2 33924  73.9137 269.4558 0404033 304.8281  51.5435 13.50226863827457"
      },
      "geometry": {
        "type": "Point",
        "coordinates": [
          -92.34212712981586,
          -2.1070738529578996
        ]
      }
    },
    {
      "type": "Feature",
      "properties": {
        "norad_id": 33928,
        "name": "COSMOS 2251 DEB",
        "group": "cosmos-2251-debris",
        "lat": -30.353922119257806,
        "lon": 40.57778326735846,
        "alt_km": 697.638163408752,
        "timestamp": "2025-12-13T22:39:30.104265+00:00",
        "meta_object_name": "COSMOS 2251 DEB",
        "meta_object_id": "1993-036EH",
        "meta_epoch": "2025-12-12T21:55:15.152448",
        "meta_mean_motion": 14.47405202,
        "meta_eccentricity": 0.00614704,
        "meta_inclination": 73.9261,
        "meta_ra_of_asc_node": 52.2385,
        "meta_arg_of_pericenter": 346.3076,
        "meta_mean_anomaly": 13.6412,
        "meta_ephemeris_type": 0,
        "meta_classification_type": "U",
        "meta_norad_cat_id": 33928,
        "meta_element_set_no": 999,
        "meta_rev_at_epoch": 88647,
        "meta_bstar": 0.0003654765,
        "meta_mean_motion_dot": 1.343e-05,
        "meta_mean_motion_ddot": 0,
        "tle_line1": "1 33928U 93036EH  25346.91336982  .00001343  00000+0  36548-3 0  9996",
        "tle_line2": "2 33928  73.9261  52.2385 0061470 346.3076  13.6412 14.47405202886476"
      },
      "geometry": {
        "type": "Point",
        "coordinates": [
          40.57778326735846,
          -30.353922119257806
        ]
      }
    },
    {
      "type": "Feature",
      "properties": {
        "norad_id": 33932,
        "name": "COSMOS 2251 DEB",
        "group": "cosmos-2251-debris",
        "lat": 63.63111227031994,
        "lon": -11.02881300676095,
        "alt_km": 736.4314435462175,
        "timestamp": "2025-12-13T22:39:30.104275+00:00",
        "meta_object_name": "COSMOS 2251 DEB",
        "meta_object_id": "1993-036EM",
        "meta_epoch": "2025-12-13T07:19:23.791008",
        "meta_mean_motion": 14.38761919,
        "meta_eccentricity": 0.00353246,
        "meta_inclination": 74.0345,
        "meta_ra_of_asc_node": 314.8747,
        "meta_arg_of_pericenter": 30.9296,
        "meta_mean_anomaly": 329.3928,
        "meta_ephemeris_type": 0,
        "meta_classification_type": "U",
        "meta_norad_cat_id": 33932,
        "meta_element_set_no": 999,
        "meta_rev_at_epoch": 88006,
        "meta_bstar": 0.00081570475,
        "meta_mean_motion_dot": 2.498e-05,
        "meta_mean_motion_ddot": 0,
        "tle_line1": "1 33932U 93036EM  25347.30513647  .00002498  00000+0  81570-3 0  9997",
        "tle_line2": "2 33932  74.0345 314.8747 0035324  30.9296 329.3928 14.38761919880062"
      },
      "geometry": {
        "type": "Point",
        "coordinates": [
          -11.02881300676095,
          63.63111227031994
        ]
      }
    },
    {
      "type": "Feature",
      "properties": {
        "norad_id": 33933,
        "name": "COSMOS 2251 DEB",
        "group": "cosmos-2251-debris",
        "lat": -67.59110966968767,
        "lon": -78.28955448558193,
        "alt_km": 837.1753503995742,
        "timestamp": "2025-12-13T22:39:30.104286+00:00",
        "meta_object_name": "COSMOS 2251 DEB",
        "meta_object_id": "1993-036EN",
        "meta_epoch": "2025-12-13T06:24:21.580416",
        "meta_mean_motion": 14.33490586,
        "meta_eccentricity": 0.00707955,
        "meta_inclination": 74.0894,
        "meta_ra_of_asc_node": 59.1759,
        "meta_arg_of_pericenter": 67.4288,
        "meta_mean_anomaly": 293.4335,
        "meta_ephemeris_type": 0,
        "meta_classification_type": "U",
        "meta_norad_cat_id": 33933,
        "meta_element_set_no": 999,
        "meta_rev_at_epoch": 87792,
        "meta_bstar": 0.00042652157,
        "meta_mean_motion_dot": 1.187e-05,
        "meta_mean_motion_ddot": 0,
        "tle_line1": "1 33933U 93036EN  25347.26691644  .00001187  00000+0  42652-3 0  9999",
        "tle_line2": "2 33933  74.0894  59.1759 0070795  67.4288 293.4335 14.33490586877929"
      },
      "geometry": {
        "type": "Point",
        "coordinates": [
          -78.28955448558193,
          -67.59110966968767
        ]
      }
    },
    {
      "type": "Feature",
      "properties": {
        "norad_id": 33934,
        "name": "COSMOS 2251 DEB",
        "group": "cosmos-2251-debris",
        "lat": 55.02621629089241,
        "lon": -105.87458928377819,
        "alt_km": 692.3822444180569,
        "timestamp": "2025-12-13T22:39:30.104296+00:00",
        "meta_object_name": "COSMOS 2251 DEB",
        "meta_object_id": "1993-036EP",
        "meta_epoch": "2025-12-12T18:07:43.284576",
        "meta_mean_motion": 14.59111203,
        "meta_eccentricity": 0.00156636,
        "meta_inclination": 74.0377,
        "meta_ra_of_asc_node": 100.5418,
        "meta_arg_of_pericenter": 224.3594,
        "meta_mean_anomaly": 135.6317,
        "meta_ephemeris_type": 0,
        "meta_classification_type": "U",
        "meta_norad_cat_id": 33934,
        "meta_element_set_no": 999,
        "meta_rev_at_epoch": 88739,
        "meta_bstar": 0.0015003059,
        "meta_mean_motion_dot": 7.051e-05,
        "meta_mean_motion_ddot": 0,
        "tle_line1": "1 33934U 93036EP  25346.75536209  .00007051  00000+0  15003-2 0  9993",
        "tle_line2": "2 33934  74.0377 100.5418 0015663 224.3594 135.6317 14.59111203887399"
      },
      "geometry": {
        "type": "Point",
        "coordinates": [
          -105.87458928377819,
          55.02621629089241
        ]
      }
    },
    {
      "type": "Feature",
      "properties": {
        "norad_id": 33936,
        "name": "COSMOS 2251 DEB",
        "group": "cosmos-2251-debris",
        "lat": 51.41903939123327,
        "lon": 56.23559719007577,
        "alt_km": 701.0741092944745,
        "timestamp": "2025-12-13T22:39:30.104307+00:00",
        "meta_object_name": "COSMOS 2251 DEB",
        "meta_object_id": "1993-036ER",
        "meta_epoch": "2025-12-13T05:58:00.817248",
        "meta_mean_motion": 14.60279507,
        "meta_eccentricity": 0.00275077,
        "meta_inclination": 74.0191,
        "meta_ra_of_asc_node": 36.5112,
        "meta_arg_of_pericenter": 191.8397,
        "meta_mean_anomaly": 168.2125,
        "meta_ephemeris_type": 0,
        "meta_classification_type": "U",
        "meta_norad_cat_id": 33936,
        "meta_element_set_no": 999,
        "meta_rev_at_epoch": 88897,
        "meta_bstar": 0.0011028355,
        "meta_mean_motion_dot": 5.327e-05,
        "meta_mean_motion_ddot": 0,
        "tle_line1": "1 33936U 93036ER  25347.24862057  .00005327  00000+0  11028-2 0  9990",
        "tle_line2": "2 33936  74.0191  36.5112 0027507 191.8397 168.2125 14.60279507888971"
      },
      "geometry": {
        "type": "Point",
        "coordinates": [
          56.23559719007577,
          51.41903939123327
        ]
      }
    },
    {
      "type": "Feature",
      "properties": {
        "norad_id": 33938,
        "name": "COSMOS 2251 DEB",
        "group": "cosmos-2251-debris",
        "lat": -28.573492894879795,
        "lon": 33.89176077503619,
        "alt_km": 738.9454287724284,
        "timestamp": "2025-12-13T22:39:30.104317+00:00",
        "meta_object_name": "COSMOS 2251 DEB",
        "meta_object_id": "1993-036ET",
        "meta_epoch": "2025-12-13T02:32:58.691040",
        "meta_mean_motion": 14.46795546,
        "meta_eccentricity": 0.0016835,
        "meta_inclination": 74.045,
        "meta_ra_of_asc_node": 206.492,
        "meta_arg_of_pericenter": 288.7048,
        "meta_mean_anomaly": 238.9962,
        "meta_ephemeris_type": 0,
        "meta_classification_type": "U",
        "meta_norad_cat_id": 33938,
        "meta_element_set_no": 999,
        "meta_rev_at_epoch": 88405,
        "meta_bstar": 0.00065617048,
        "meta_mean_motion_dot": 2.354e-05,
        "meta_mean_motion_ddot": 0,
        "tle_line1": "1 33938U 93036ET  25347.10623485  .00002354  00000+0  65617-3 0  9998",
        "tle_line2": "2 33938  74.0450 206.4920 0016835 288.7048 238.9962 14.46795546884056"
      },
      "geometry": {
        "type": "Point",
        "coordinates": [
          33.89176077503619,
          -28.573492894879795
        ]
      }
    }
  ]
}